FID,FRS_FACILI,REGISTRY_I,PRIMARY_NA,LOCATION_A,SUPPLEMENT,CITY_NAME,COUNTY_NAM,FIPS_CODE,STATE_CODE,STATE_NAME,COUNTRY_NA,POSTAL_COD,FEDERAL_FA,FEDERAL_AG,TRIBAL_LAN,TRIBAL_L_1,CONGRESSIO,CENSUS_BLO,HUC_CODE,EPA_REGION,SITE_TYPE_,LOCATION_D,CREATE_DAT,UPDATE_DAT,US_MEXICO_,PGM_SYS_AC,INTEREST_T,NAICS_CODE,NAICS_CO_1,SIC_CODES,SIC_CODE_D,LATITUDE83,LONGITUDE8,CONVEYOR,COLLECT_DE,ACCURACY_V,REF_POINT_,HDATUM_DES,SOURCE_DES,Lat,Long,POINT_X,POINT_Y
0,http://ofmpub.epa.gov/enviro/fii_query_detail.disp_program_facility?p_registry_id=110050512021,110050512021.000000000000000,JOHNSON & JOHNSON - JOHNSON & JOHNSON,-, ,-,-, ,PR,PUERTO RICO,UNITED STATES,00000, , , , ,0,0.000000000000000,0,2,STATIONARY, ,26-OCT-2012 19:52:24,02-FEB-2015 23:03:33, ,SFDW,WATER TREATMENT PLANT,0, , , ,0.000000000000000,0.000000000000000, , ,0, ,NAD83, ,1.000000000000000,1.000000000000000,0.000000000000000,0.000000000000000
1,http://ofmpub.epa.gov/enviro/fii_query_detail.disp_program_facility?p_registry_id=110048880083,110048880083.000000000000000,ADJUNTAS URBANO - RIO GARZAS,PR-10 R518 HM 1, ,ADJUNTAS,ADJUNTAS,72001,PR,PUERTO RICO,UNITED STATES,00601, , , , ,0,0.000000000000000,0,2,STATIONARY, ,26-OCT-2012 14:27:06,28-JUN-2016 16:56:21, ,SFDW,WATER TREATMENT PLANT,0, , , ,0.000000000000000,0.000000000000000, , ,0, ,NAD83, ,1.000000000000000,1.000000000000000,0.000000000000000,0.000000000000000
2,http://ofmpub.epa.gov/enviro/fii_query_detail.disp_program_facility?p_registry_id=110048879576,110048879576.000000000000000,ADJUNTAS URBANO - RIO OLIMPIA,PR-10 R518 HM 1, ,ADJUNTAS,ADJUNTAS,72001,PR,PUERTO RICO,UNITED STATES,00601, , , , ,0,0.000000000000000,0,2,STATIONARY, ,26-OCT-2012 14:27:04,28-JUN-2016 15:22:07, ,SFDW,WATER TREATMENT PLANT,0, , , ,0.000000000000000,0.000000000000000, , ,0, ,NAD83, ,1.000000000000000,1.000000000000000,0.000000000000000,0.000000000000000
3,http://ofmpub.epa.gov/enviro/fii_query_detail.disp_program_facility?p_registry_id=110052483175,110052483175.000000000000000,JUAN GONZALEZ - JUAN GONZALEZ,PR-523 KM 1.5,BO.JUAN GONZALEZ,ADJUNTAS,ADJUNTAS,72001,PR,PUERTO RICO,UNITED STATES,00601, , , , ,0,0.000000000000000,0,2,STATIONARY, ,27-OCT-2012 11:42:05,28-JUN-2016 15:22:05, ,SFDW,WATER TREATMENT PLANT,0, , , ,0.000000000000000,0.000000000000000, , ,0, ,NAD83, ,1.000000000000000,1.000000000000000,0.000000000000000,0.000000000000000
4,http://ofmpub.epa.gov/enviro/fii_query_detail.disp_program_facility?p_registry_id=110048750687,110048750687.000000000000000,SALTILLO VACA - SALTILLO VACAS,PR-10 R518 KM.5, ,ADJUNTAS,ADJUNTAS,72001,PR,PUERTO RICO,UNITED STATES,00601, , , , ,0,0.000000000000000,0,2,STATIONARY, ,26-OCT-2012 14:17:33,28-JUN-2016 16:56:20, ,SFDW,WATER TREATMENT PLANT,0, , , ,0.000000000000000,0.000000000000000, , ,0, ,NAD83, ,1.000000000000000,1.000000000000000,0.000000000000000,0.000000000000000
5,http://ofmpub.epa.gov/enviro/fii_query_detail.disp_program_facility?p_registry_id=110048750865,110048750865.000000000000000,TANAMA - TANAMA RIVER,PR-526 KM 7.1, ,ADJUNTAS,ADJUNTAS,72001,PR,PUERTO RICO,UNITED STATES,00601, , , , ,0,0.000000000000000,0,2,STATIONARY, ,26-OCT-2012 14:17:34,28-JUN-2016 17:26:21, ,SFDW,WATER TREATMENT PLANT,0, , , ,0.000000000000000,0.000000000000000, , ,0, ,NAD83, ,1.000000000000000,1.000000000000000,0.000000000000000,0.000000000000000
6,http://ofmpub.epa.gov/enviro/fii_query_detail.disp_program_facility?p_registry_id=110050562994,110050562994.000000000000000,COM. AISLADA EN DESARROLLO-COM. AISLADA DESARROLLO,PR-417 KM 7.7,BO. CERRO GORDO,AGUADA,AGUADA, ,PR,PUERTO RICO,US,00602, , , , ,0,0.000000000000000,0,2,STATIONARY, ,26-OCT-2012 20:04:05,28-JUN-2016 12:49:10, ,SFDW,WATER TREATMENT PLANT,0, , , ,0.000000000000000,0.000000000000000, , ,0, ,NAD83, ,1.000000000000000,1.000000000000000,0.000000000000000,0.000000000000000
7,http://ofmpub.epa.gov/enviro/fii_query_detail.disp_program_facility?p_registry_id=110052180322,110052180322.000000000000000,COMUNIDAD GAVINO NEGRON-CERRO GORDO,PR-2 KM 139.2 INT. 419,BO.CERRO GORDO,AGUADA,AGUADA, ,PR,PUERTO RICO,US,00602, , , , ,0,0.000000000000000,0,2,STATIONARY, ,27-OCT-2012 10:27:25,28-JUN-2016 17:30:30, ,SFDW,WATER TREATMENT PLANT,0, , , ,0.000000000000000,0.000000000000000, , ,0, ,NAD83, ,1.000000000000000,1.000000000000000,0.000000000000000,0.000000000000000
8,http://ofmpub.epa.gov/enviro/fii_query_detail.disp_program_facility?p_registry_id=110050563190,110050563190.000000000000000,PROYECTO AGUAS-PROYECTO AGUAS,PR-2 KM 137.5,BO. LAGUNAS,AGUADA,AGUADA, ,PR,PUERTO RICO,US,00602, , , , ,0,0.000000000000000,0,2,STATIONARY, ,26-OCT-2012 20:04:09,28-JUN-2016 13:49:32, ,SFDW,WATER TREATMENT PLANT,0, , , ,0.000000000000000,0.000000000000000, , ,0, ,NAD83, ,1.000000000000000,1.000000000000000,0.000000000000000,0.000000000000000
9,http://ofmpub.epa.gov/enviro/fii_query_detail.disp_program_facility?p_registry_id=110050513048,110050513048.000000000000000,QUEBRADA LARGA-QUEBRADA LARGA,PR-2 KM 139.5 RAMAL 191,SECTOR QUEBRADA LARGA,AGUADA,AGUADA, ,PR,PUERTO RICO,US,00602, , , , ,0,0.000000000000000,0,2,STATIONARY, ,26-OCT-2012 19:52:36,28-JUN-2016 15:00:27, ,SFDW,WATER TREATMENT PLANT,0, , , ,0.000000000000000,0.000000000000000, , ,0, ,NAD83, ,1.000000000000000,1.000000000000000,0.000000000000000,0.000000000000000
10,http://ofmpub.epa.gov/enviro/fii_query_detail.disp_program_facility?p_registry_id=110050039944,110050039944.000000000000000,AGUADILLA - AGUADILLA CHANNEL (MAIN),PR-459 KM 0.3, ,AGUADILLA,AGUADILLA, ,PR,PUERTO RICO,UNITED STATES,00647, , , , ,0,0.000000000000000,0,2,STATIONARY, ,26-OCT-2012 18:04:04,28-JUN-2016 12:48:25, ,SFDW,WATER TREATMENT PLANT,0, , , ,0.000000000000000,0.000000000000000, , ,0, ,NAD83, ,1.000000000000000,1.000000000000000,0.000000000000000,0.000000000000000
11,http://ofmpub.epa.gov/enviro/fii_query_detail.disp_program_facility?p_registry_id=110050065861,110050065861.000000000000000,AGUADILLA - ATALAYA WATER SYSTEM,PR-459 KM 0.3, ,AGUADILLA,AGUADILLA, ,PR,PUERTO RICO,UNITED STATES,00647, , , , ,0,0.000000000000000,0,2,STATIONARY, ,26-OCT-2012 18:09:38,28-JUN-2016 14:59:09, ,SFDW,WATER TREATMENT PLANT,0, , , ,0.000000000000000,0.000000000000000, , ,0, ,NAD83, ,1.000000000000000,1.000000000000000,0.000000000000000,0.000000000000000
12,http://ofmpub.epa.gov/enviro/fii_query_detail.disp_program_facility?p_registry_id=110050065567,110050065567.000000000000000,AGUADILLA - CLOTILDE CHAPARRO,PR-459 KM 0.3, ,AGUADILLA,AGUADILLA, ,PR,PUERTO RICO,UNITED STATES,00647, , , , ,0,0.000000000000000,0,2,STATIONARY, ,26-OCT-2012 18:09:34,28-JUN-2016 11:47:30, ,SFDW,WATER TREATMENT PLANT,0, , , ,0.000000000000000,0.000000000000000, , ,0, ,NAD83, ,1.000000000000000,1.000000000000000,0.000000000000000,0.000000000000000
13,http://ofmpub.epa.gov/enviro/fii_query_detail.disp_program_facility?p_registry_id=110050065362,110050065362.000000000000000,AGUADILLA - CULEBRINAS RIVER,PR-459 KM 0.3, ,AGUADILLA,AGUADILLA, ,PR,PUERTO RICO,UNITED STATES,00647, , , , ,0,0.000000000000000,0,2,STATIONARY, ,26-OCT-2012 18:09:31,28-JUN-2016 13:45:45, ,SFDW,WATER TREATMENT PLANT,0, , , ,0.000000000000000,0.000000000000000, , ,0, ,NAD83, ,1.000000000000000,1.000000000000000,0.000000000000000,0.000000000000000
14,http://ofmpub.epa.gov/enviro/fii_query_detail.disp_program_facility?p_registry_id=110050065745,110050065745.000000000000000,AGUADILLA - FEY ALERS (LAGUNA),PR-459 KM 0.3, ,AGUADILLA,AGUADILLA, ,PR,PUERTO RICO,UNITED STATES,00647, , , , ,0,0.000000000000000,0,2,STATIONARY, ,26-OCT-2012 18:09:36,28-JUN-2016 11:47:30, ,SFDW,WATER TREATMENT PLANT,0, , , ,0.000000000000000,0.000000000000000, , ,0, ,NAD83, ,1.000000000000000,1.000000000000000,0.000000000000000,0.000000000000000
15,http://ofmpub.epa.gov/enviro/fii_query_detail.disp_program_facility?p_registry_id=110050065610,110050065610.000000000000000,AGUADILLA - GILBERTO HERNANDEZ (MARIA 2),PR-459 KM 0.3, ,AGUADILLA,AGUADILLA, ,PR,PUERTO RICO,UNITED STATES,00647, , , , ,0,0.000000000000000,0,2,STATIONARY, ,26-OCT-2012 18:09:34,28-JUN-2016 15:22:04, ,SFDW,WATER TREATMENT PLANT,0, , , ,0.000000000000000,0.000000000000000, , ,0, ,NAD83, ,1.000000000000000,1.000000000000000,0.000000000000000,0.000000000000000
16,http://ofmpub.epa.gov/enviro/fii_query_detail.disp_program_facility?p_registry_id=110050039908,110050039908.000000000000000,AGUADILLA - GUANABANO,PR-459 KM 0.3, ,AGUADILLA,AGUADILLA, ,PR,PUERTO RICO,UNITED STATES,00647, , , , ,0,0.000000000000000,0,2,STATIONARY, ,26-OCT-2012 18:04:03,28-JUN-2016 14:52:32, ,SFDW,WATER TREATMENT PLANT,0, , , ,0.000000000000000,0.000000000000000, , ,0, ,NAD83, ,1.000000000000000,1.000000000000000,0.000000000000000,0.000000000000000
17,http://ofmpub.epa.gov/enviro/fii_query_detail.disp_program_facility?p_registry_id=110050065415,110050065415.000000000000000,AGUADILLA - MOCA CHANNEL,PR-459 KM 0.3, ,AGUADILLA,AGUADILLA, ,PR,PUERTO RICO,UNITED STATES,00647, , , , ,0,0.000000000000000,0,2,STATIONARY, ,26-OCT-2012 18:09:32,28-JUN-2016 11:47:30, ,SFDW,WATER TREATMENT PLANT,0, , , ,0.000000000000000,0.000000000000000, , ,0, ,NAD83, ,1.000000000000000,1.000000000000000,0.000000000000000,0.000000000000000
18,http://ofmpub.epa.gov/enviro/fii_query_detail.disp_program_facility?p_registry_id=110050066101,110050066101.000000000000000,AGUADILLA - NARANJO SEGUI 2,PR-459 KM 0.3, ,AGUADILLA,AGUADILLA, ,PR,PUERTO RICO,UNITED STATES,00647, , , , ,0,0.000000000000000,0,2,STATIONARY, ,26-OCT-2012 18:09:40,28-JUN-2016 14:58:21, ,SFDW,WATER TREATMENT PLANT,0, , , ,0.000000000000000,0.000000000000000, , ,0, ,NAD83, ,1.000000000000000,1.000000000000000,0.000000000000000,0.000000000000000
19,http://ofmpub.epa.gov/enviro/fii_query_detail.disp_program_facility?p_registry_id=110050065914,110050065914.000000000000000,AGUADILLA - PUENTE WATER SYSTEM,PR-459 KM 0.3, ,AGUADILLA,AGUADILLA, ,PR,PUERTO RICO,UNITED STATES,00647, , , , ,0,0.000000000000000,0,2,STATIONARY, ,26-OCT-2012 18:09:38,28-JUN-2016 14:58:20, ,SFDW,WATER TREATMENT PLANT,0, , , ,0.000000000000000,0.000000000000000, , ,0, ,NAD83, ,1.000000000000000,1.000000000000000,0.000000000000000,0.000000000000000
20,http://ofmpub.epa.gov/enviro/fii_query_detail.disp_program_facility?p_registry_id=110050065807,110050065807.000000000000000,AGUADILLA - PUNTAS (RICON III),PR-459 KM 0.3, ,AGUADILLA,AGUADILLA, ,PR,PUERTO RICO,UNITED STATES,00647, , , , ,0,0.000000000000000,0,2,STATIONARY, ,26-OCT-2012 18:09:37,28-JUN-2016 12:48:25, ,SFDW,WATER TREATMENT PLANT,0, , , ,0.000000000000000,0.000000000000000, , ,0, ,NAD83, ,1.000000000000000,1.000000000000000,0.000000000000000,0.000000000000000
21,http://ofmpub.epa.gov/enviro/fii_query_detail.disp_program_facility?p_registry_id=110050065978,110050065978.000000000000000,AGUADILLA - RINCON II (CRUCES),PR-459 KM 0.3, ,AGUADILLA,AGUADILLA, ,PR,PUERTO RICO,UNITED STATES,00647, , , , ,0,0.000000000000000,0,2,STATIONARY, ,26-OCT-2012 18:09:39,28-JUN-2016 14:58:21, ,SFDW,WATER TREATMENT PLANT,0, , , ,0.000000000000000,0.000000000000000, , ,0, ,NAD83, ,1.000000000000000,1.000000000000000,0.000000000000000,0.000000000000000
22,http://ofmpub.epa.gov/enviro/fii_query_detail.disp_program_facility?p_registry_id=110050065692,110050065692.000000000000000,AGUADILLA - RIO GRANDE II,PR-459 KM 0.3, ,AGUADILLA,AGUADILLA, ,PR,PUERTO RICO,UNITED STATES,00647, , , , ,0,0.000000000000000,0,2,STATIONARY, ,26-OCT-2012 18:09:36,28-JUN-2016 13:45:45, ,SFDW,WATER TREATMENT PLANT,0, , , ,0.000000000000000,0.000000000000000, , ,0, ,NAD83, ,1.000000000000000,1.000000000000000,0.000000000000000,0.000000000000000
23,http://ofmpub.epa.gov/enviro/fii_query_detail.disp_program_facility?p_registry_id=110050065665,110050065665.000000000000000,AGUADILLA - SANTIAGO CORTEZ (MARIA 3),PR-459 KM 0.3, ,AGUADILLA,AGUADILLA, ,PR,PUERTO RICO,UNITED STATES,00647, , , , ,0,0.000000000000000,0,2,STATIONARY, ,26-OCT-2012 18:09:35,28-JUN-2016 16:56:17, ,SFDW,WATER TREATMENT PLANT,0, , , ,0.000000000000000,0.000000000000000, , ,0, ,NAD83, ,1.000000000000000,1.000000000000000,0.000000000000000,0.000000000000000
24,http://ofmpub.epa.gov/enviro/fii_query_detail.disp_program_facility?p_registry_id=110050388843,110050388843.000000000000000,COM. RIVERA - COM. RIVERA INC.,PR-156 KM 45.2 INT,BO. MULAS SECT. LA RAMBLA,AGUAS BUENAS,AGUAS BUENAS,72007,PR,PUERTO RICO,UNITED STATES,00703, , , , ,0,0.000000000000000,0,2,STATIONARY, ,26-OCT-2012 19:20:43,28-JUN-2016 12:48:59, ,SFDW,WATER TREATMENT PLANT,0, , , ,0.000000000000000,0.000000000000000, , ,0, ,NAD83, ,1.000000000000000,1.000000000000000,0.000000000000000,0.000000000000000
25,http://ofmpub.epa.gov/enviro/fii_query_detail.disp_program_facility?p_registry_id=110050168251,110050168251.000000000000000,CUYON - BAUZA WELL NO. 1,CARR 1 KM 69.1, ,AIBONITO,AIBONITO, ,PR,PUERTO RICO,UNITED STATES,00653, , , , ,98,720092505001000.000000000000000,21010005,2,STATIONARY, ,26-OCT-2012 18:32:07,28-JUN-2016 14:59:10, ,SFDW,WATER TREATMENT PLANT,0, , , ,18.141850000000002,-66.261349999999993,FRS-GEOCODE,ADDRESS MATCHING-BLOCK FACE,500,ENTRANCE POINT OF A FACILITY OR STATION,NAD83, ,18.141850000000002,-66.261349999999993,-66.261349999999993,18.141850000000002
26,http://ofmpub.epa.gov/enviro/fii_query_detail.disp_program_facility?p_registry_id=110052272580,110052272580.000000000000000,GLOBAL COMMODITY GROUP - UP JOHN COMPANY,CARR 2 KM 60.0,BO. SABANA HOYOS,ARECIBO,ARECIBO,72013,PR,PUERTO RICO,UNITED STATES,00612, , , , ,98,720133008004000.000000000000000,21010002,2,STATIONARY, ,27-OCT-2012 10:49:30,28-JUN-2016 12:48:56, ,SFDW,WATER TREATMENT PLANT,0, , , ,18.469010000000001,-66.747940000000000,FRS-GEOCODE,ADDRESS MATCHING-BLOCK FACE,500,ENTRANCE POINT OF A FACILITY OR STATION,NAD83, ,18.469010000000001,-66.747940000000000,-66.747940000000000,18.469010000000001
27,http://ofmpub.epa.gov/enviro/fii_query_detail.disp_program_facility?p_registry_id=110048666500,110048666500.000000000000000,BARCELONETA URBANO - DAVILA I,PR-140 KM 38.5 INT, ,BARCELONETA,BARCELONETA,72017,PR,PUERTO RICO,UNITED STATES,00617, , , , ,0,0.000000000000000,0,2,STATIONARY, ,26-OCT-2012 14:10:12,28-JUN-2016 17:30:29, ,SFDW,WATER TREATMENT PLANT,0, , , ,0.000000000000000,0.000000000000000, , ,0, ,NAD83, ,1.000000000000000,1.000000000000000,0.000000000000000,0.000000000000000
28,http://ofmpub.epa.gov/enviro/fii_query_detail.disp_program_facility?p_registry_id=110048152388,110048152388.000000000000000,BARCELONETA URBANO - FORTUNA,PR-140 KM 38.5 INT, ,BARCELONETA,BARCELONETA,72017,PR,PUERTO RICO,UNITED STATES,00617, , , , ,0,0.000000000000000,0,2,STATIONARY, ,26-OCT-2012 13:18:11,28-JUN-2016 17:30:29, ,SFDW,WATER TREATMENT PLANT,0, , , ,0.000000000000000,0.000000000000000, , ,0, ,NAD83, ,1.000000000000000,1.000000000000000,0.000000000000000,0.000000000000000
29,http://ofmpub.epa.gov/enviro/fii_query_detail.disp_program_facility?p_registry_id=110048152235,110048152235.000000000000000,BARCELONETA URBANO - TIBURONES 2,PR-140 KM 38.5 INT, ,BARCELONETA,BARCELONETA,72017,PR,PUERTO RICO,UNITED STATES,00617, , , , ,0,0.000000000000000,0,2,STATIONARY, ,26-OCT-2012 13:18:10,28-JUN-2016 15:00:26, ,SFDW,WATER TREATMENT PLANT,0, , , ,0.000000000000000,0.000000000000000, , ,0, ,NAD83, ,1.000000000000000,1.000000000000000,0.000000000000000,0.000000000000000
30,http://ofmpub.epa.gov/enviro/fii_query_detail.disp_program_facility?p_registry_id=110048666323,110048666323.000000000000000,BARCELONETA URBANO - VISKACE,PR-140 KM 38.5 INT, ,BARCELONETA,BARCELONETA,72017,PR,PUERTO RICO,UNITED STATES,00617, , , , ,0,0.000000000000000,0,2,STATIONARY, ,26-OCT-2012 14:10:11,28-JUN-2016 13:49:31, ,SFDW,WATER TREATMENT PLANT,0, , , ,0.000000000000000,0.000000000000000, , ,0, ,NAD83, ,1.000000000000000,1.000000000000000,0.000000000000000,0.000000000000000
31,http://ofmpub.epa.gov/enviro/fii_query_detail.disp_program_facility?p_registry_id=110052295967,110052295967.000000000000000,CRUCE DAVILA DEVELOPMENT LLC - SEARLE (STERLING PHARMACEUTICAL),PR-140,SECTOR CRUCE DAVILA,BARCELONETA,BARCELONETA,72017,PR,PUERTO RICO,UNITED STATES,00617, , , , ,0,0.000000000000000,0,2,STATIONARY, ,27-OCT-2012 10:54:43,19-SEP-2016 15:23:16, ,SFDW,WATER TREATMENT PLANT,0, , , ,0.000000000000000,0.000000000000000, , ,0, ,NAD83, ,1.000000000000000,1.000000000000000,0.000000000000000,0.000000000000000
32,http://ofmpub.epa.gov/enviro/fii_query_detail.disp_program_facility?p_registry_id=110048922494,110048922494.000000000000000,PAJONAL WTP,PR-140 KM 61.2, ,BARCELONETA,BARCELONETA, ,PR,PUERTO RICO,UNITED STATES,00617, , , , ,0,0.000000000000000,0,2,STATIONARY, ,26-OCT-2012 14:30:10,19-SEP-2016 12:06:10, ,SFDW,WATER TREATMENT PLANT,0, , , ,0.000000000000000,0.000000000000000, , ,0, ,NAD83, ,1.000000000000000,1.000000000000000,0.000000000000000,0.000000000000000
33,http://ofmpub.epa.gov/enviro/fii_query_detail.disp_program_facility?p_registry_id=110052063002,110052063002.000000000000000,ACUED. COM. BO. QUEBRADILLAS - QUEBRADILLAS 13 FARALLON,PR-152 KM 7.8 INT,SECTOR FARALLON,BARRANQUITAS,BARRANQUITAS,72019,PR,PUERTO RICO,UNITED STATES,00794, , , , ,0,0.000000000000000,0,2,STATIONARY, ,27-OCT-2012 09:48:39,28-JUN-2016 13:45:49, ,SFDW,WATER TREATMENT PLANT,0, , , ,0.000000000000000,0.000000000000000, , ,0, ,NAD83, ,1.000000000000000,1.000000000000000,0.000000000000000,0.000000000000000
34,http://ofmpub.epa.gov/enviro/fii_query_detail.disp_program_facility?p_registry_id=110050046151,110050046151.000000000000000,BARRANQUITAS URBANO - BOTIJAS RIVER,PR-152 KM 0.3, ,BARRANQUITAS,BARRANQUITAS,72019,PR,PUERTO RICO,UNITED STATES,00794, , , , ,0,0.000000000000000,0,2,STATIONARY, ,26-OCT-2012 18:05:29,28-JUN-2016 17:26:40, ,SFDW,WATER TREATMENT PLANT,0, , , ,0.000000000000000,0.000000000000000, , ,0, ,NAD83, ,1.000000000000000,1.000000000000000,0.000000000000000,0.000000000000000
35,http://ofmpub.epa.gov/enviro/fii_query_detail.disp_program_facility?p_registry_id=110050046464,110050046464.000000000000000,BARRANQUITAS URBANO - FEBUS,PR-152 KM 0.3, ,BARRANQUITAS,BARRANQUITAS,72019,PR,PUERTO RICO,UNITED STATES,00794, , , , ,0,0.000000000000000,0,2,STATIONARY, ,26-OCT-2012 18:05:33,28-JUN-2016 17:26:40, ,SFDW,WATER TREATMENT PLANT,0, , , ,0.000000000000000,0.000000000000000, , ,0, ,NAD83, ,1.000000000000000,1.000000000000000,0.000000000000000,0.000000000000000
36,http://ofmpub.epa.gov/enviro/fii_query_detail.disp_program_facility?p_registry_id=110050046552,110050046552.000000000000000,BARRANQUITAS URBANO - HELECHAL,PR-152 KM 0.3, ,BARRANQUITAS,BARRANQUITAS,72019,PR,PUERTO RICO,UNITED STATES,00794, , , , ,0,0.000000000000000,0,2,STATIONARY, ,26-OCT-2012 18:05:35,28-JUN-2016 14:02:56, ,SFDW,WATER TREATMENT PLANT,0, , , ,0.000000000000000,0.000000000000000, , ,0, ,NAD83, ,1.000000000000000,1.000000000000000,0.000000000000000,0.000000000000000
37,http://ofmpub.epa.gov/enviro/fii_query_detail.disp_program_facility?p_registry_id=110050047098,110050047098.000000000000000,BARRANQUITAS URBANO - HOTEL,PR-152 KM 0.3, ,BARRANQUITAS,BARRANQUITAS,72019,PR,PUERTO RICO,UNITED STATES,00794, , , , ,0,0.000000000000000,0,2,STATIONARY, ,26-OCT-2012 18:05:42,28-JUN-2016 12:53:31, ,SFDW,WATER TREATMENT PLANT,0, , , ,0.000000000000000,0.000000000000000, , ,0, ,NAD83, ,1.000000000000000,1.000000000000000,0.000000000000000,0.000000000000000
38,http://ofmpub.epa.gov/enviro/fii_query_detail.disp_program_facility?p_registry_id=110050046936,110050046936.000000000000000,BARRANQUITAS URBANO - LA TORRE,PR-152 KM 0.3, ,BARRANQUITAS,BARRANQUITAS,72019,PR,PUERTO RICO,UNITED STATES,00794, , , , ,0,0.000000000000000,0,2,STATIONARY, ,26-OCT-2012 18:05:39,28-JUN-2016 17:26:40, ,SFDW,WATER TREATMENT PLANT,0, , , ,0.000000000000000,0.000000000000000, , ,0, ,NAD83, ,1.000000000000000,1.000000000000000,0.000000000000000,0.000000000000000
39,http://ofmpub.epa.gov/enviro/fii_query_detail.disp_program_facility?p_registry_id=110049535829,110049535829.000000000000000,BARRANQUITAS URBANO - OLLA HONDA,PR-152 KM 0.3, ,BARRANQUITAS,BARRANQUITAS,72019,PR,PUERTO RICO,UNITED STATES,00794, , , , ,0,0.000000000000000,0,2,STATIONARY, ,26-OCT-2012 15:56:22,28-JUN-2016 17:27:54, ,SFDW,WATER TREATMENT PLANT,0, , , ,0.000000000000000,0.000000000000000, , ,0, ,NAD83, ,1.000000000000000,1.000000000000000,0.000000000000000,0.000000000000000
40,http://ofmpub.epa.gov/enviro/fii_query_detail.disp_program_facility?p_registry_id=110050046302,110050046302.000000000000000,BARRANQUITAS URBANO - PADILLA CREEK,PR-152 KM 0.3, ,BARRANQUITAS,BARRANQUITAS,72019,PR,PUERTO RICO,UNITED STATES,00794, , , , ,0,0.000000000000000,0,2,STATIONARY, ,26-OCT-2012 18:05:31,28-JUN-2016 12:53:31, ,SFDW,WATER TREATMENT PLANT,0, , , ,0.000000000000000,0.000000000000000, , ,0, ,NAD83, ,1.000000000000000,1.000000000000000,0.000000000000000,0.000000000000000
41,http://ofmpub.epa.gov/enviro/fii_query_detail.disp_program_facility?p_registry_id=110050046240,110050046240.000000000000000,BARRANQUITAS URBANO - PALO HINCADO  (PI ONAS),PR-152 KM 0.3, ,BARRANQUITAS,BARRANQUITAS,72019,PR,PUERTO RICO,UNITED STATES,00794, , , , ,0,0.000000000000000,0,2,STATIONARY, ,26-OCT-2012 18:05:30,28-JUN-2016 11:27:22, ,SFDW,WATER TREATMENT PLANT,0, , , ,0.000000000000000,0.000000000000000, , ,0, ,NAD83, ,1.000000000000000,1.000000000000000,0.000000000000000,0.000000000000000
42,http://ofmpub.epa.gov/enviro/fii_query_detail.disp_program_facility?p_registry_id=110050046776,110050046776.000000000000000,BARRANQUITAS URBANO - PALO HINCADO 1,PR-152 KM 0.3, ,BARRANQUITAS,BARRANQUITAS,72019,PR,PUERTO RICO,UNITED STATES,00794, , , , ,0,0.000000000000000,0,2,STATIONARY, ,26-OCT-2012 18:05:37,28-JUN-2016 14:02:56, ,SFDW,WATER TREATMENT PLANT,0, , , ,0.000000000000000,0.000000000000000, , ,0, ,NAD83, ,1.000000000000000,1.000000000000000,0.000000000000000,0.000000000000000
43,http://ofmpub.epa.gov/enviro/fii_query_detail.disp_program_facility?p_registry_id=110050046393,110050046393.000000000000000,BARRANQUITAS URBANO - PALO HINCADO 4,PR-152 KM 0.3, ,BARRANQUITAS,BARRANQUITAS,72019,PR,PUERTO RICO,UNITED STATES,00794, , , , ,0,0.000000000000000,0,2,STATIONARY, ,26-OCT-2012 18:05:32,28-JUN-2016 15:03:09, ,SFDW,WATER TREATMENT PLANT,0, , , ,0.000000000000000,0.000000000000000, , ,0, ,NAD83, ,1.000000000000000,1.000000000000000,0.000000000000000,0.000000000000000
44,http://ofmpub.epa.gov/enviro/fii_query_detail.disp_program_facility?p_registry_id=110050046865,110050046865.000000000000000,BARRANQUITAS URBANO - PALO HINCADO NO. 3,PR-152 KM 0.3, ,BARRANQUITAS,BARRANQUITAS,72019,PR,PUERTO RICO,UNITED STATES,00794, , , , ,0,0.000000000000000,0,2,STATIONARY, ,26-OCT-2012 18:05:38,28-JUN-2016 14:54:29, ,SFDW,WATER TREATMENT PLANT,0, , , ,0.000000000000000,0.000000000000000, , ,0, ,NAD83, ,1.000000000000000,1.000000000000000,0.000000000000000,0.000000000000000
45,http://ofmpub.epa.gov/enviro/fii_query_detail.disp_program_facility?p_registry_id=110050047016,110050047016.000000000000000,BARRANQUITAS URBANO - PALO HINCADO NO.2,PR-152 KM 0.3, ,BARRANQUITAS,BARRANQUITAS,72019,PR,PUERTO RICO,UNITED STATES,00794, , , , ,0,0.000000000000000,0,2,STATIONARY, ,26-OCT-2012 18:05:41,28-JUN-2016 17:10:21, ,SFDW,WATER TREATMENT PLANT,0, , , ,0.000000000000000,0.000000000000000, , ,0, ,NAD83, ,1.000000000000000,1.000000000000000,0.000000000000000,0.000000000000000
46,http://ofmpub.epa.gov/enviro/fii_query_detail.disp_program_facility?p_registry_id=110049535721,110049535721.000000000000000,BARRANQUITAS URBANO - PALO HINCADO V,PR-152 KM 0.3, ,BARRANQUITAS,BARRANQUITAS,72019,PR,PUERTO RICO,UNITED STATES,00794, , , , ,0,0.000000000000000,0,2,STATIONARY, ,26-OCT-2012 15:56:21,28-JUN-2016 12:53:50, ,SFDW,WATER TREATMENT PLANT,0, , , ,0.000000000000000,0.000000000000000, , ,0, ,NAD83, ,1.000000000000000,1.000000000000000,0.000000000000000,0.000000000000000
47,http://ofmpub.epa.gov/enviro/fii_query_detail.disp_program_facility?p_registry_id=110050046687,110050046687.000000000000000,BARRANQUITAS URBANO - TRES CAMINOS,PR-152 KM 0.3, ,BARRANQUITAS,BARRANQUITAS,72019,PR,PUERTO RICO,UNITED STATES,00794, , , , ,0,0.000000000000000,0,2,STATIONARY, ,26-OCT-2012 18:05:36,28-JUN-2016 17:10:21, ,SFDW,WATER TREATMENT PLANT,0, , , ,0.000000000000000,0.000000000000000, , ,0, ,NAD83, ,1.000000000000000,1.000000000000000,0.000000000000000,0.000000000000000
48,http://ofmpub.epa.gov/enviro/fii_query_detail.disp_program_facility?p_registry_id=110049734980,110049734980.000000000000000,CABO ROJO - CABO ROJO I,CARR. 103 KM. 2 TO 4, ,CABO ROJO,CABO ROJO,72023,PR,PUERTO RICO,UNITED STATES,00623, , , , ,0,0.000000000000000,0,2,STATIONARY, ,26-OCT-2012 16:47:38,28-JUN-2016 12:49:04, ,SFDW,WATER TREATMENT PLANT,0, , , ,0.000000000000000,0.000000000000000, , ,0, ,NAD83, ,1.000000000000000,1.000000000000000,0.000000000000000,0.000000000000000
49,http://ofmpub.epa.gov/enviro/fii_query_detail.disp_program_facility?p_registry_id=110049735426,110049735426.000000000000000,CABO ROJO - CABO ROJO II (BAJURAS),CARR. 103 KM. 2 TO 4, ,CABO ROJO,CABO ROJO,72023,PR,PUERTO RICO,UNITED STATES,00623, , , , ,0,0.000000000000000,0,2,STATIONARY, ,26-OCT-2012 16:47:44,28-JUN-2016 12:49:03, ,SFDW,WATER TREATMENT PLANT,0, , , ,0.000000000000000,0.000000000000000, , ,0, ,NAD83, ,1.000000000000000,1.000000000000000,0.000000000000000,0.000000000000000
50,http://ofmpub.epa.gov/enviro/fii_query_detail.disp_program_facility?p_registry_id=110049735658,110049735658.000000000000000,CABO ROJO - LAJAS CHANNEL,PR-103 KM 2 TO 4, ,CABO ROJO,CABO ROJO,72023,PR,PUERTO RICO,UNITED STATES,00623, , , , ,0,0.000000000000000,0,2,STATIONARY, ,26-OCT-2012 16:47:47,28-JUN-2016 13:47:49, ,SFDW,WATER TREATMENT PLANT,0, , , ,0.000000000000000,0.000000000000000, , ,0, ,NAD83, ,1.000000000000000,1.000000000000000,0.000000000000000,0.000000000000000
51,http://ofmpub.epa.gov/enviro/fii_query_detail.disp_program_facility?p_registry_id=110048192497,110048192497.000000000000000,REMANSO - REMANSO,PR-102 KM 22.8, ,CABO ROJO,CABO ROJO,72023,PR,PUERTO RICO,UNITED STATES,00623, , , , ,0,0.000000000000000,0,2,STATIONARY, ,26-OCT-2012 13:22:01,28-JUN-2016 13:43:46, ,SFDW,WATER TREATMENT PLANT,0, , , ,0.000000000000000,0.000000000000000, , ,0, ,NAD83, ,1.000000000000000,1.000000000000000,0.000000000000000,0.000000000000000
52,http://ofmpub.epa.gov/enviro/fii_query_detail.disp_program_facility?p_registry_id=110049824464,110049824464.000000000000000,ACUED COM SECTOR LA SIERRA - LA SIERRA,PR-172 HM. 6.0,BO. CA%ABONCITO,CAGUAS,CAGUAS,72025,PR,PUERTO RICO,UNITED STATES,00725, , , , ,0,0.000000000000000,0,2,STATIONARY, ,26-OCT-2012 17:11:36,28-JUN-2016 14:44:00, ,SFDW,WATER TREATMENT PLANT,0, , , ,0.000000000000000,0.000000000000000, , ,0, ,NAD83, ,1.000000000000000,1.000000000000000,0.000000000000000,0.000000000000000
53,http://ofmpub.epa.gov/enviro/fii_query_detail.disp_program_facility?p_registry_id=110052598523,110052598523.000000000000000,ACUED. RURAL TURADO ARRIBA - TURABO ARRIBA,PR-7784 KM 0.4,BO. TURABO ARRIBA,CAGUAS,CAGUAS,72025,PR,PUERTO RICO,UNITED STATES,00725, , , , ,0,0.000000000000000,0,2,STATIONARY, ,27-OCT-2012 12:03:30,28-JUN-2016 12:49:01, ,SFDW,WATER TREATMENT PLANT,0, , , ,0.000000000000000,0.000000000000000, , ,0, ,NAD83, ,1.000000000000000,1.000000000000000,0.000000000000000,0.000000000000000
54,http://ofmpub.epa.gov/enviro/fii_query_detail.disp_program_facility?p_registry_id=110050459151,110050459151.000000000000000,SISTEMA DE AGUA DUAL BARRAZA - SISTEMA DE AGUA DUAL BARRAZA,PR-853 KM 11.4 INT 852,BO. BARRAZA,CAROLINA,CAROLINA,72031,PR,PUERTO RICO,UNITED STATES,00979, , , , ,0,0.000000000000000,0,2,STATIONARY, ,26-OCT-2012 19:39:10,28-JUN-2016 11:47:30, ,SFDW,WATER TREATMENT PLANT,0, , , ,0.000000000000000,0.000000000000000, , ,0, ,NAD83, ,1.000000000000000,1.000000000000000,0.000000000000000,0.000000000000000
55,http://ofmpub.epa.gov/enviro/fii_query_detail.disp_program_facility?p_registry_id=110049770459,110049770459.000000000000000,CIALES URBANO - CIALES RIVER,PR-146 KM 27.2, ,CIALES,CIALES,72039,PR,PUERTO RICO,UNITED STATES,00638, , , , ,0,0.000000000000000,0,2,STATIONARY, ,26-OCT-2012 16:56:14,28-JUN-2016 14:58:40, ,SFDW,WATER TREATMENT PLANT,0, , , ,0.000000000000000,0.000000000000000, , ,0, ,NAD83, ,1.000000000000000,1.000000000000000,0.000000000000000,0.000000000000000
56,http://ofmpub.epa.gov/enviro/fii_query_detail.disp_program_facility?p_registry_id=110049770627,110049770627.000000000000000,CIALES URBANO - CORDILLERAS CR.,PR-146 KM 27.2, ,CIALES,CIALES,72039,PR,PUERTO RICO,UNITED STATES,00638, , , , ,0,0.000000000000000,0,2,STATIONARY, ,26-OCT-2012 16:56:17,28-JUN-2016 12:48:22, ,SFDW,WATER TREATMENT PLANT,0, , , ,0.000000000000000,0.000000000000000, , ,0, ,NAD83, ,1.000000000000000,1.000000000000000,0.000000000000000,0.000000000000000
57,http://ofmpub.epa.gov/enviro/fii_query_detail.disp_program_facility?p_registry_id=110049770770,110049770770.000000000000000,CIALES URBANO - RIO ARRIBA 4,PR-146 KM 27.2, ,CIALES,CIALES,72039,PR,PUERTO RICO,UNITED STATES,00638, , , , ,0,0.000000000000000,0,2,STATIONARY, ,26-OCT-2012 16:56:19,28-JUN-2016 14:53:04, ,SFDW,WATER TREATMENT PLANT,0, , , ,0.000000000000000,0.000000000000000, , ,0, ,NAD83, ,1.000000000000000,1.000000000000000,0.000000000000000,0.000000000000000
58,http://ofmpub.epa.gov/enviro/fii_query_detail.disp_program_facility?p_registry_id=110049745763,110049745763.000000000000000,CIDRA URBANO - WELL NO. 8 (CEMENTERIO),PR-173 KM 3.3, ,CIDRA,CIDRA, ,PR,PUERTO RICO,UNITED STATES,00638, , , , ,0,0.000000000000000,0,2,STATIONARY, ,26-OCT-2012 16:49:57,28-JUN-2016 11:30:20, ,SFDW,WATER TREATMENT PLANT,0, , , ,0.000000000000000,0.000000000000000, , ,0, ,NAD83, ,1.000000000000000,1.000000000000000,0.000000000000000,0.000000000000000
59,http://ofmpub.epa.gov/enviro/fii_query_detail.disp_program_facility?p_registry_id=110049494944,110049494944.000000000000000,COAMO URBANO - AGUILAS,PR-155 KM 1.1, ,COAMO,COAMO,72043,PR,PUERTO RICO,UNITED STATES,00769, , , , ,0,0.000000000000000,0,2,STATIONARY, ,26-OCT-2012 15:47:56,28-JUN-2016 14:59:29, ,SFDW,WATER TREATMENT PLANT,0, , , ,0.000000000000000,0.000000000000000, , ,0, ,NAD83, ,1.000000000000000,1.000000000000000,0.000000000000000,0.000000000000000
60,http://ofmpub.epa.gov/enviro/fii_query_detail.disp_program_facility?p_registry_id=110049494748,110049494748.000000000000000,COAMO URBANO - CALABAZA,PR-155 KM 1.1, ,COAMO,COAMO,72043,PR,PUERTO RICO,UNITED STATES,00769, , , , ,0,0.000000000000000,0,2,STATIONARY, ,26-OCT-2012 15:47:53,28-JUN-2016 14:53:03, ,SFDW,WATER TREATMENT PLANT,0, , , ,0.000000000000000,0.000000000000000, , ,0, ,NAD83, ,1.000000000000000,1.000000000000000,0.000000000000000,0.000000000000000
61,http://ofmpub.epa.gov/enviro/fii_query_detail.disp_program_facility?p_registry_id=110049494846,110049494846.000000000000000,COAMO URBANO - COAMO RIVER,PR-155 KM 1.1, ,COAMO,COAMO,72043,PR,PUERTO RICO,UNITED STATES,00769, , , , ,0,0.000000000000000,0,2,STATIONARY, ,26-OCT-2012 15:47:55,28-JUN-2016 15:21:18, ,SFDW,WATER TREATMENT PLANT,0, , , ,0.000000000000000,0.000000000000000, , ,0, ,NAD83, ,1.000000000000000,1.000000000000000,0.000000000000000,0.000000000000000
62,http://ofmpub.epa.gov/enviro/fii_query_detail.disp_program_facility?p_registry_id=110052202754,110052202754.000000000000000,ACUED. DONA ELENA (LOS PINOS) - LOS PINOS-LA IGLESIA,PR-780 RAMAL 7780 KM 7.0,BO.DONA ELENA,COMERIO,COMERIO,72045,PR,PUERTO RICO,UNITED STATES,00782, , , , ,0,0.000000000000000,0,2,STATIONARY, ,27-OCT-2012 10:33:18,28-JUN-2016 14:18:51, ,SFDW,WATER TREATMENT PLANT,0, , , ,0.000000000000000,0.000000000000000, , ,0, ,NAD83, ,1.000000000000000,1.000000000000000,0.000000000000000,0.000000000000000
63,http://ofmpub.epa.gov/enviro/fii_query_detail.disp_program_facility?p_registry_id=110052556907,110052556907.000000000000000,COROZAL URBANO - CIBUCO DAM,PR-159 KM 16.5, ,COROZAL,COROZAL,72047,PR,PUERTO RICO,UNITED STATES,00783, , , , ,0,0.000000000000000,0,2,STATIONARY, ,27-OCT-2012 11:56:10,28-JUN-2016 15:00:42, ,SFDW,WATER TREATMENT PLANT,0, , , ,0.000000000000000,0.000000000000000, , ,0, ,NAD83, ,1.000000000000000,1.000000000000000,0.000000000000000,0.000000000000000
64,http://ofmpub.epa.gov/enviro/fii_query_detail.disp_program_facility?p_registry_id=110050403611,110050403611.000000000000000,COROZAL URBANO - DON CARLOS DAM,PR-159 KM 16.5, ,COROZAL,COROZAL,72047,PR,PUERTO RICO,UNITED STATES,00783, , , , ,0,0.000000000000000,0,2,STATIONARY, ,26-OCT-2012 19:24:20,28-JUN-2016 15:00:42, ,SFDW,WATER TREATMENT PLANT,0, , , ,0.000000000000000,0.000000000000000, , ,0, ,NAD83, ,1.000000000000000,1.000000000000000,0.000000000000000,0.000000000000000
65,http://ofmpub.epa.gov/enviro/fii_query_detail.disp_program_facility?p_registry_id=110052556809,110052556809.000000000000000,COROZAL URBANO - DOS BOCAS DAM,PR-159 KM 16.5, ,COROZAL,COROZAL,72047,PR,PUERTO RICO,UNITED STATES,00783, , , , ,0,0.000000000000000,0,2,STATIONARY, ,27-OCT-2012 11:56:09,28-JUN-2016 13:49:35, ,SFDW,WATER TREATMENT PLANT,0, , , ,0.000000000000000,0.000000000000000, , ,0, ,NAD83, ,1.000000000000000,1.000000000000000,0.000000000000000,0.000000000000000
66,http://ofmpub.epa.gov/enviro/fii_query_detail.disp_program_facility?p_registry_id=110048152459,110048152459.000000000000000,FLORIDA URBANO - WATER SYSTEM,PR-155 KM 55.1, ,FLORIDA,FLORIDA,72054,PR,PUERTO RICO,UNITED STATES,00650, , , , ,0,0.000000000000000,0,2,STATIONARY, ,26-OCT-2012 13:18:12,28-JUN-2016 17:29:36, ,SFDW,WATER TREATMENT PLANT,0, , , ,0.000000000000000,0.000000000000000, , ,0, ,NAD83, ,1.000000000000000,1.000000000000000,0.000000000000000,0.000000000000000
67,http://ofmpub.epa.gov/enviro/fii_query_detail.disp_program_facility?p_registry_id=110050133645,110050133645.000000000000000,ARENAS - ARENAS WELL,PR-116 KM 33.2, ,GUANICA,GUANICA,72055,PR,PUERTO RICO,UNITED STATES,00653, , , , ,0,0.000000000000000,0,2,STATIONARY, ,26-OCT-2012 18:24:34,28-JUN-2016 15:28:48, ,SFDW,WATER TREATMENT PLANT,0, , , ,0.000000000000000,0.000000000000000, , ,0, ,NAD83, ,1.000000000000000,1.000000000000000,0.000000000000000,0.000000000000000
68,http://ofmpub.epa.gov/enviro/fii_query_detail.disp_program_facility?p_registry_id=110050104141,110050104141.000000000000000,ENSENADA - ENSENADA (ESTACION M),PR-116 KM 25.4, ,GUANICA,GUANICA,72055,PR,PUERTO RICO,UNITED STATES,00653, , , , ,0,0.000000000000000,0,2,STATIONARY, ,26-OCT-2012 18:18:13,28-JUN-2016 13:45:54, ,SFDW,WATER TREATMENT PLANT,0, , , ,0.000000000000000,0.000000000000000, , ,0, ,NAD83, ,1.000000000000000,1.000000000000000,0.000000000000000,0.000000000000000
69,http://ofmpub.epa.gov/enviro/fii_query_detail.disp_program_facility?p_registry_id=110050564466,110050564466.000000000000000,ESTACION M - ESTACION M,PR-332 HM. 0.1, ,GUANICA,GUANICA,72055,PR,PUERTO RICO,UNITED STATES,00653, , , , ,0,0.000000000000000,0,2,STATIONARY, ,26-OCT-2012 20:04:28,28-JUN-2016 17:30:00, ,SFDW,WATER TREATMENT PLANT,0, , , ,0.000000000000000,0.000000000000000, , ,0, ,NAD83, ,1.000000000000000,1.000000000000000,0.000000000000000,0.000000000000000
70,http://ofmpub.epa.gov/enviro/fii_query_detail.disp_program_facility?p_registry_id=110050103945,110050103945.000000000000000,GUANICA URBANO - GUANICA NUEVO,PR-116 KM.29.1, ,GUANICA,GUANICA,72055,PR,PUERTO RICO,UNITED STATES,00653, , , , ,0,0.000000000000000,0,2,STATIONARY, ,26-OCT-2012 18:18:11,28-JUN-2016 15:21:22, ,SFDW,WATER TREATMENT PLANT,0, , , ,0.000000000000000,0.000000000000000, , ,0, ,NAD83, ,1.000000000000000,1.000000000000000,0.000000000000000,0.000000000000000
71,http://ofmpub.epa.gov/enviro/fii_query_detail.disp_program_facility?p_registry_id=110050104070,110050104070.000000000000000,GUANICA URBANO - GUANICA VIEJO,PR-116 KM.29.1, ,GUANICA,GUANICA,72055,PR,PUERTO RICO,UNITED STATES,00653, , , , ,0,0.000000000000000,0,2,STATIONARY, ,26-OCT-2012 18:18:12,28-JUN-2016 13:45:54, ,SFDW,WATER TREATMENT PLANT,0, , , ,0.000000000000000,0.000000000000000, , ,0, ,NAD83, ,1.000000000000000,1.000000000000000,0.000000000000000,0.000000000000000
72,http://ofmpub.epa.gov/enviro/fii_query_detail.disp_program_facility?p_registry_id=110050104016,110050104016.000000000000000,GUANICA URBANO - OCHOA # 1,PR-116 KM.29.1, ,GUANICA,GUANICA,72055,PR,PUERTO RICO,UNITED STATES,00653, , , , ,0,0.000000000000000,0,2,STATIONARY, ,26-OCT-2012 18:18:12,28-JUN-2016 14:53:04, ,SFDW,WATER TREATMENT PLANT,0, , , ,0.000000000000000,0.000000000000000, , ,0, ,NAD83, ,1.000000000000000,1.000000000000000,0.000000000000000,0.000000000000000
73,http://ofmpub.epa.gov/enviro/fii_query_detail.disp_program_facility?p_registry_id=110050103776,110050103776.000000000000000,LOS CANOS - LOS CANOS,PR-116 KM 33.4, ,GUANICA,GUANICA,72055,PR,PUERTO RICO,UNITED STATES,00653, , , , ,0,0.000000000000000,0,2,STATIONARY, ,26-OCT-2012 18:18:09,28-JUN-2016 14:59:29, ,SFDW,WATER TREATMENT PLANT,0, , , ,0.000000000000000,0.000000000000000, , ,0, ,NAD83, ,1.000000000000000,1.000000000000000,0.000000000000000,0.000000000000000
74,http://ofmpub.epa.gov/enviro/fii_query_detail.disp_program_facility?p_registry_id=110050103874,110050103874.000000000000000,LOS CANOS - PALOMAS,PR-116 KM 33.4, ,GUANICA,GUANICA,72055,PR,PUERTO RICO,UNITED STATES,00653, , , , ,0,0.000000000000000,0,2,STATIONARY, ,26-OCT-2012 18:18:10,28-JUN-2016 14:59:30, ,SFDW,WATER TREATMENT PLANT,0, , , ,0.000000000000000,0.000000000000000, , ,0, ,NAD83, ,1.000000000000000,1.000000000000000,0.000000000000000,0.000000000000000
75,http://ofmpub.epa.gov/enviro/fii_query_detail.disp_program_facility?p_registry_id=110048749191,110048749191.000000000000000,RIO LOCO - RIO LOCO WELL,PR-2 KM.226.6, ,GUANICA,GUANICA,72055,PR,PUERTO RICO,UNITED STATES,00653, , , , ,0,0.000000000000000,0,2,STATIONARY, ,26-OCT-2012 14:17:28,28-JUN-2016 11:49:19, ,SFDW,WATER TREATMENT PLANT,0, , , ,0.000000000000000,0.000000000000000, , ,0, ,NAD83, ,1.000000000000000,1.000000000000000,0.000000000000000,0.000000000000000
76,http://ofmpub.epa.gov/enviro/fii_query_detail.disp_program_facility?p_registry_id=110048154304,110048154304.000000000000000,DEPORTIVO - QUEDRADA NUEVO (PICHIS),PR-127 KM.236, ,GUAYANILLA,GUAYANILLA,72059,PR,PUERTO RICO,UNITED STATES,00656, , , , ,0,0.000000000000000,0,2,STATIONARY, ,26-OCT-2012 13:18:24,28-JUN-2016 13:58:58, ,SFDW,WATER TREATMENT PLANT,0, , , ,0.000000000000000,0.000000000000000, , ,0, ,NAD83, ,1.000000000000000,1.000000000000000,0.000000000000000,0.000000000000000
77,http://ofmpub.epa.gov/enviro/fii_query_detail.disp_program_facility?p_registry_id=110050229490,110050229490.000000000000000,CAMPO ALEGRE WATER SYSTEM,PR-130 KM 11.5, ,HATILLO,HATILLO,72065,PR,PUERTO RICO,UNITED STATES,00659, , , , ,0,0.000000000000000,0,2,STATIONARY, ,26-OCT-2012 18:45:05,28-JUN-2016 17:31:02, ,SFDW,WATER TREATMENT PLANT,0, , , ,0.000000000000000,0.000000000000000, , ,0, ,NAD83, ,1.000000000000000,1.000000000000000,0.000000000000000,0.000000000000000
78,http://ofmpub.epa.gov/enviro/fii_query_detail.disp_program_facility?p_registry_id=110049043986,110049043986.000000000000000,QUEBRADA - CAMUY RIVER,PR-134 KM 23.4, ,HATILLO,HATILLO, ,PR,PUERTO RICO,UNITED STATES,00627, , , , ,0,0.000000000000000,0,2,STATIONARY, ,26-OCT-2012 14:40:05,28-JUN-2016 15:29:29, ,SFDW,WATER TREATMENT PLANT,0, , , ,0.000000000000000,0.000000000000000, , ,0, ,NAD83, ,1.000000000000000,1.000000000000000,0.000000000000000,0.000000000000000
79,http://ofmpub.epa.gov/enviro/fii_query_detail.disp_program_facility?p_registry_id=110050229310,110050229310.000000000000000,QUEBRADA - LAS CAVERNAS,PR-134 KM 23.4, ,HATILLO,HATILLO, ,PR,PUERTO RICO,UNITED STATES,00627, , , , ,0,0.000000000000000,0,2,STATIONARY, ,26-OCT-2012 18:45:02,28-JUN-2016 15:03:23, ,SFDW,WATER TREATMENT PLANT,0, , , ,0.000000000000000,0.000000000000000, , ,0, ,NAD83, ,1.000000000000000,1.000000000000000,0.000000000000000,0.000000000000000
80,http://ofmpub.epa.gov/enviro/fii_query_detail.disp_program_facility?p_registry_id=110049779236,110049779236.000000000000000,LAVADEROS - LAVADERO,PR-345 KM 6.8, ,HORMIGUEROS,HORMIGUEROS,72067,PR,PUERTO RICO,UNITED STATES,00660, , , , ,0,0.000000000000000,0,2,STATIONARY, ,26-OCT-2012 16:58:41,28-JUN-2016 15:21:20, ,SFDW,WATER TREATMENT PLANT,0, , , ,0.000000000000000,0.000000000000000, , ,0, ,NAD83, ,1.000000000000000,1.000000000000000,0.000000000000000,0.000000000000000
81,http://ofmpub.epa.gov/enviro/fii_query_detail.disp_program_facility?p_registry_id=110049733776,110049733776.000000000000000,CANALIZO - CANALIZO RIVER,PR-140 KM 4.0, ,JAYUYA,JAYUYA,72073,PR,PUERTO RICO,UNITED STATES,00664, , , , ,0,0.000000000000000,0,2,STATIONARY, ,26-OCT-2012 16:47:19,28-JUN-2016 16:54:52, ,SFDW,WATER TREATMENT PLANT,0, , , ,0.000000000000000,0.000000000000000, , ,0, ,NAD83, ,1.000000000000000,1.000000000000000,0.000000000000000,0.000000000000000
82,http://ofmpub.epa.gov/enviro/fii_query_detail.disp_program_facility?p_registry_id=110048633109,110048633109.000000000000000,LA PICA - UNNAMED CREEK,PR-143 KM 5.0 INT, ,JAYUYA,JAYUYA,72073,PR,PUERTO RICO,UNITED STATES,00664, , , , ,0,0.000000000000000,0,2,STATIONARY, ,26-OCT-2012 14:06:53,28-JUN-2016 16:56:37, ,SFDW,WATER TREATMENT PLANT,0, , , ,0.000000000000000,0.000000000000000, , ,0, ,NAD83, ,1.000000000000000,1.000000000000000,0.000000000000000,0.000000000000000
83,http://ofmpub.epa.gov/enviro/fii_query_detail.disp_program_facility?p_registry_id=110050024031,110050024031.000000000000000,LAJAS - LAJAS CHANNEL,PR-116 INT PR-315, ,LAJAS,LAJAS,72079,PR,PUERTO RICO,UNITED STATES,00667, , , , ,0,0.000000000000000,0,2,STATIONARY, ,26-OCT-2012 18:00:14,28-JUN-2016 11:49:23, ,SFDW,WATER TREATMENT PLANT,0, , , ,0.000000000000000,0.000000000000000, , ,0, ,NAD83, ,1.000000000000000,1.000000000000000,0.000000000000000,0.000000000000000
84,http://ofmpub.epa.gov/enviro/fii_query_detail.disp_program_facility?p_registry_id=110052421991,110052421991.000000000000000,ACUED. HACIENDA PLANELL - ACUED. HACIENDA PLANELL,PR-124 RAMAL 4431 KM 1.0,BO.PEZUELA FCA.ENRIQUE PLANELL,LARES,LARES,72081,PR,PUERTO RICO,UNITED STATES,00669, , , , ,0,0.000000000000000,0,2,STATIONARY, ,27-OCT-2012 11:27:52,28-JUN-2016 17:26:22, ,SFDW,WATER TREATMENT PLANT,0, , , ,0.000000000000000,0.000000000000000, , ,0, ,NAD83, ,1.000000000000000,1.000000000000000,0.000000000000000,0.000000000000000
85,http://ofmpub.epa.gov/enviro/fii_query_detail.disp_program_facility?p_registry_id=110048664575,110048664575.000000000000000,LARES URBANO - CAMUY RIVER,PR-128 KM 38.3 INT, ,LARES,LARES,72081,PR,PUERTO RICO,UNITED STATES,00669, , , , ,0,0.000000000000000,0,2,STATIONARY, ,26-OCT-2012 14:09:58,28-JUN-2016 14:50:43, ,SFDW,WATER TREATMENT PLANT,0, , , ,0.000000000000000,0.000000000000000, , ,0, ,NAD83, ,1.000000000000000,1.000000000000000,0.000000000000000,0.000000000000000
86,http://ofmpub.epa.gov/enviro/fii_query_detail.disp_program_facility?p_registry_id=110048664156,110048664156.000000000000000,LARES URBANO - GUAJATACA RIVER,PR-128 KM 38.3 INT, ,LARES,LARES,72081,PR,PUERTO RICO,UNITED STATES,00669, , , , ,0,0.000000000000000,0,2,STATIONARY, ,26-OCT-2012 14:09:56,28-JUN-2016 14:50:47, ,SFDW,WATER TREATMENT PLANT,0, , , ,0.000000000000000,0.000000000000000, , ,0, ,NAD83, ,1.000000000000000,1.000000000000000,0.000000000000000,0.000000000000000
87,http://ofmpub.epa.gov/enviro/fii_query_detail.disp_program_facility?p_registry_id=110049734711,110049734711.000000000000000,LAS MARIAS - MAYAGUEZILLO DAM,PR-124 KM 2.2, ,LAS MARIAS,LAS MARIAS,72083,PR,PUERTO RICO,UNITED STATES,00670, , , , ,0,0.000000000000000,0,2,STATIONARY, ,26-OCT-2012 16:47:33,28-JUN-2016 12:49:03, ,SFDW,WATER TREATMENT PLANT,0, , , ,0.000000000000000,0.000000000000000, , ,0, ,NAD83, ,1.000000000000000,1.000000000000000,0.000000000000000,0.000000000000000
88,http://ofmpub.epa.gov/enviro/fii_query_detail.disp_program_facility?p_registry_id=110052088771,110052088771.000000000000000,PAISAJE DEL LAGO - PAISAJE DEL LAGO,PR-3 KM 38.3, ,LUQUILLO,LUQUILLO,72089,PR,PUERTO RICO,UNITED STATES,00773, , , , ,0,0.000000000000000,0,2,STATIONARY, ,27-OCT-2012 09:58:25,28-JUN-2016 12:49:10, ,SFDW,WATER TREATMENT PLANT,0, , , ,0.000000000000000,0.000000000000000, , ,0, ,NAD83, ,1.000000000000000,1.000000000000000,0.000000000000000,0.000000000000000
89,http://ofmpub.epa.gov/enviro/fii_query_detail.disp_program_facility?p_registry_id=110052422179,110052422179.000000000000000,WARNER CHILCOTT PUERTO RICO LLC - PROCTER & PHARMACEUTICALS,CARR 2 KM 45.7,BO. COTO NORTE,MANATI,MANATI,72091,PR,PUERTO RICO,UNITED STATES,00674, , , , ,98,720915705002000.000000000000000,21010002,2,STATIONARY, ,27-OCT-2012 11:27:56,28-JUN-2016 13:49:32, ,SFDW,WATER TREATMENT PLANT,0, , , ,18.432089999999999,-66.471149999999994,FRS-GEOCODE,ADDRESS MATCHING-BLOCK FACE,500,ENTRANCE POINT OF A FACILITY OR STATION,NAD83, ,18.432089999999999,-66.471149999999994,-66.471149999999994,18.432089999999999
90,http://ofmpub.epa.gov/enviro/fii_query_detail.disp_program_facility?p_registry_id=110050230102,110050230102.000000000000000,LLANADAS - MAIN CHANNEL,PR-426 KM 2.0 INT.,COM. LLANADAS BO.INDIERA BAJA,MARICAO,MARICAO,72093,PR,PUERTO RICO,UNITED STATES,00606, , , , ,0,0.000000000000000,0,2,STATIONARY, ,26-OCT-2012 18:45:11,28-JUN-2016 11:49:26, ,SFDW,WATER TREATMENT PLANT,0, , , ,0.000000000000000,0.000000000000000, , ,0, ,NAD83, ,1.000000000000000,1.000000000000000,0.000000000000000,0.000000000000000
91,http://ofmpub.epa.gov/enviro/fii_query_detail.disp_program_facility?p_registry_id=110041887697,110041887697.000000000000000,SANAMUERTO-SANAMUERTO R.,PR-567 KM 1.2 INT, ,MOROVIS,MOROVIS, ,PR,PUERTO RICO,US,00720, , , , ,0,0.000000000000000,0,2,STATIONARY, ,27-AUG-2010 13:23:08,28-JUN-2016 14:49:05, ,SFDW,WATER TREATMENT PLANT,0, , , ,0.000000000000000,0.000000000000000, , ,0, ,NAD83, ,1.000000000000000,1.000000000000000,0.000000000000000,0.000000000000000
92,http://ofmpub.epa.gov/enviro/fii_query_detail.disp_program_facility?p_registry_id=110051042634,110051042634.000000000000000,"RIO BLANCO,VIEQUES,CULEDRA - ENSENADA",PR-31 KM 9.9, ,NAGUABO,NAGUABO,72103,PR,PUERTO RICO,UNITED STATES,00718, , , , ,0,0.000000000000000,0,2,STATIONARY, ,26-OCT-2012 22:59:12,28-JUN-2016 14:59:18, ,SFDW,WATER TREATMENT PLANT,0, , , ,0.000000000000000,0.000000000000000, , ,0, ,NAD83, ,1.000000000000000,1.000000000000000,0.000000000000000,0.000000000000000
93,http://ofmpub.epa.gov/enviro/fii_query_detail.disp_program_facility?p_registry_id=110050948105,110050948105.000000000000000,ASOCIACION SECTOR COLI - ASOCIACION SECTOR,PR-155 KM 26.7,SALIDA A COAMO,OROCOVIS,OROCOVIS,72107,PR,PUERTO RICO,UNITED STATES,00720, , , , ,0,0.000000000000000,0,2,STATIONARY, ,26-OCT-2012 22:07:44,28-JUN-2016 14:50:44, ,SFDW,WATER TREATMENT PLANT,0, , , ,0.000000000000000,0.000000000000000, , ,0, ,NAD83, ,1.000000000000000,1.000000000000000,0.000000000000000,0.000000000000000
94,http://ofmpub.epa.gov/enviro/fii_query_detail.disp_program_facility?p_registry_id=110052061816,110052061816.000000000000000,COMUNIDAD EL FRIO - EL FRIO,PR-143 KM 30.5,SECTOR EL FRIO,OROCOVIS,OROCOVIS,72107,PR,PUERTO RICO,UNITED STATES,00720, , , , ,0,0.000000000000000,0,2,STATIONARY, ,27-OCT-2012 09:48:13,28-JUN-2016 11:49:11, ,SFDW,WATER TREATMENT PLANT,0, , , ,0.000000000000000,0.000000000000000, , ,0, ,NAD83, ,1.000000000000000,1.000000000000000,0.000000000000000,0.000000000000000
95,http://ofmpub.epa.gov/enviro/fii_query_detail.disp_program_facility?p_registry_id=110052316506,110052316506.000000000000000,LA SAPIA - LA SAPIA,BO CACAO - HACIENDA,"CARR. 157, KM. 2.2 (INT.)",OROCOVIS,OROCOVIS,72107,PR,PUERTO RICO,UNITED STATES,00720, , , , ,0,0.000000000000000,0,2,STATIONARY, ,27-OCT-2012 10:59:56,28-JUN-2016 15:15:44, ,SFDW,WATER TREATMENT PLANT,0, , , ,0.000000000000000,0.000000000000000, , ,0, ,NAD83, ,1.000000000000000,1.000000000000000,0.000000000000000,0.000000000000000
96,http://ofmpub.epa.gov/enviro/fii_query_detail.disp_program_facility?p_registry_id=110050078438,110050078438.000000000000000,OROCOVIS URBANO - PUMP,PR-156 KM 3, ,OROCOVIS,OROCOVIS,72107,PR,PUERTO RICO,UNITED STATES,00720, , , , ,0,0.000000000000000,0,2,STATIONARY, ,26-OCT-2012 18:12:35,28-JUN-2016 16:56:20, ,SFDW,WATER TREATMENT PLANT,0, , , ,0.000000000000000,0.000000000000000, , ,0, ,NAD83, ,1.000000000000000,1.000000000000000,0.000000000000000,0.000000000000000
97,http://ofmpub.epa.gov/enviro/fii_query_detail.disp_program_facility?p_registry_id=110050078526,110050078526.000000000000000,OROCOVIS URBANO - QUEBRADA,PR-156 KM 3, ,OROCOVIS,OROCOVIS,72107,PR,PUERTO RICO,UNITED STATES,00720, , , , ,0,0.000000000000000,0,2,STATIONARY, ,26-OCT-2012 18:12:36,28-JUN-2016 17:26:09, ,SFDW,WATER TREATMENT PLANT,0, , , ,0.000000000000000,0.000000000000000, , ,0, ,NAD83, ,1.000000000000000,1.000000000000000,0.000000000000000,0.000000000000000
98,http://ofmpub.epa.gov/enviro/fii_query_detail.disp_program_facility?p_registry_id=110050078624,110050078624.000000000000000,OROCOVIS URBANO - RIO BOTIJAS DAM,PR-156 KM 3, ,OROCOVIS,OROCOVIS,72107,PR,PUERTO RICO,UNITED STATES,00720, , , , ,0,0.000000000000000,0,2,STATIONARY, ,26-OCT-2012 18:12:37,28-JUN-2016 14:53:48, ,SFDW,WATER TREATMENT PLANT,0, , , ,0.000000000000000,0.000000000000000, , ,0, ,NAD83, ,1.000000000000000,1.000000000000000,0.000000000000000,0.000000000000000
99,http://ofmpub.epa.gov/enviro/fii_query_detail.disp_program_facility?p_registry_id=110050732748,110050732748.000000000000000,PATILLAS URBANO - TEXACO WELL,PR-3 KM. 124.3, ,PATILLAS,PATILLAS,72109,PR,PUERTO RICO,UNITED STATES,00723, , , , ,0,0.000000000000000,0,2,STATIONARY, ,26-OCT-2012 20:54:07,28-JUN-2016 17:12:02, ,SFDW,WATER TREATMENT PLANT,0, , , ,0.000000000000000,0.000000000000000, , ,0, ,NAD83, ,1.000000000000000,1.000000000000000,0.000000000000000,0.000000000000000
100,http://ofmpub.epa.gov/enviro/fii_query_detail.disp_program_facility?p_registry_id=110050073549,110050073549.000000000000000,JAGUA CEIBA - QUEBRADA CEIBA,PR-132 R386 KM 5, ,PENUELAS,PENUELAS,72111,PR,PUERTO RICO,UNITED STATES,00624, , , , ,0,0.000000000000000,0,2,STATIONARY, ,26-OCT-2012 18:11:29,28-JUN-2016 12:53:31, ,SFDW,WATER TREATMENT PLANT,0, , , ,0.000000000000000,0.000000000000000, , ,0, ,NAD83, ,1.000000000000000,1.000000000000000,0.000000000000000,0.000000000000000
101,http://ofmpub.epa.gov/enviro/fii_query_detail.disp_program_facility?p_registry_id=110050132977,110050132977.000000000000000,PENUELAS - RIO PENUELAS (GUAYANES),PR-132 KM.5, ,PENUELAS,PENUELAS,72111,PR,PUERTO RICO,UNITED STATES,00624, , , , ,0,0.000000000000000,0,2,STATIONARY, ,26-OCT-2012 18:24:27,28-JUN-2016 15:28:48, ,SFDW,WATER TREATMENT PLANT,0, , , ,0.000000000000000,0.000000000000000, , ,0, ,NAD83, ,1.000000000000000,1.000000000000000,0.000000000000000,0.000000000000000
102,http://ofmpub.epa.gov/enviro/fii_query_detail.disp_program_facility?p_registry_id=110048468369,110048468369.000000000000000,COTTO LAUREL - EXPERIMENTAL,PR-14 KM 8.2 INT., ,PONCE,PONCE,72113,PR,PUERTO RICO,UNITED STATES,00733, , , , ,98,721130719006000.000000000000000,21010004,2,STATIONARY, ,26-OCT-2012 13:48:48,28-JUN-2016 17:28:08, ,SFDW,WATER TREATMENT PLANT,0, , , ,17.996250000000000,-66.613630000000001,FRS-GEOCODE,ADDRESS MATCHING-BLOCK FACE,500,ENTRANCE POINT OF A FACILITY OR STATION,NAD83, ,17.996250000000000,-66.613630000000001,-66.613630000000001,17.996250000000000
103,http://ofmpub.epa.gov/enviro/fii_query_detail.disp_program_facility?p_registry_id=110050293142,110050293142.000000000000000,EL TESORO - EL TESORO,PR-139 KM 18,BO. MARAGUER SECTOR EL TESORO,PONCE,PONCE,72113,PR,PUERTO RICO,UNITED STATES,00731, , , , ,0,0.000000000000000,0,2,STATIONARY, ,26-OCT-2012 18:58:37,28-JUN-2016 14:46:20, ,SFDW,WATER TREATMENT PLANT,0, , , ,0.000000000000000,0.000000000000000, , ,0, ,NAD83, ,1.000000000000000,1.000000000000000,0.000000000000000,0.000000000000000
104,http://ofmpub.epa.gov/enviro/fii_query_detail.disp_program_facility?p_registry_id=110052201791,110052201791.000000000000000,EL YUNQUE - RIO ESPIRITU SANTO,PR-3 KM 26.2,ROAD 67 JUAN GONZALEZ,RIO GRANDE,RIO GRANDE,72119,PR,PUERTO RICO,UNITED STATES,00745, , , , ,0,0.000000000000000,0,2,STATIONARY, ,27-OCT-2012 10:33:00,28-JUN-2016 14:46:16, ,SFDW,WATER TREATMENT PLANT,0, , , ,0.000000000000000,0.000000000000000, , ,0, ,NAD83, ,1.000000000000000,1.000000000000000,0.000000000000000,0.000000000000000
105,http://ofmpub.epa.gov/enviro/fii_query_detail.disp_program_facility?p_registry_id=110050249664,110050249664.000000000000000,EL ROSARIO - EL ROSARIO I,PR-348 KM. 0.1, ,SAN GERMAN,SAN GERMAN,72125,PR,PUERTO RICO,UNITED STATES,00683, , , , ,0,0.000000000000000,0,2,STATIONARY, ,26-OCT-2012 18:49:22,28-JUN-2016 16:54:50, ,SFDW,WATER TREATMENT PLANT,0, , , ,0.000000000000000,0.000000000000000, , ,0, ,NAD83, ,1.000000000000000,1.000000000000000,0.000000000000000,0.000000000000000
106,http://ofmpub.epa.gov/enviro/fii_query_detail.disp_program_facility?p_registry_id=110050249842,110050249842.000000000000000,EL ROSARIO - POZO EL ROSARIO III,PR-348 KM 0.1, ,SAN GERMAN,SAN GERMAN,72125,PR,PUERTO RICO,UNITED STATES,00683, , , , ,0,0.000000000000000,0,2,STATIONARY, ,26-OCT-2012 18:49:24,28-JUN-2016 15:21:18, ,SFDW,WATER TREATMENT PLANT,0, , , ,0.000000000000000,0.000000000000000, , ,0, ,NAD83, ,1.000000000000000,1.000000000000000,0.000000000000000,0.000000000000000
107,http://ofmpub.epa.gov/enviro/fii_query_detail.disp_program_facility?p_registry_id=110050320176,110050320176.000000000000000,ACUD. RURAL GUACIO - ACUD. RURAL GUACIO INC.,PR-119 KM 42.1 INT,BO. GUACIO,SAN SEBASTIAN,SAN SEBASTIAN,72131,PR,PUERTO RICO,UNITED STATES,00685, , , , ,0,0.000000000000000,0,2,STATIONARY, ,26-OCT-2012 19:04:52,28-JUN-2016 15:22:07, ,SFDW,WATER TREATMENT PLANT,0, , , ,0.000000000000000,0.000000000000000, , ,0, ,NAD83, ,1.000000000000000,1.000000000000000,0.000000000000000,0.000000000000000
108,http://ofmpub.epa.gov/enviro/fii_query_detail.disp_program_facility?p_registry_id=110049997679,110049997679.000000000000000,SAN SEBASTIAN-CULEBRINAS RIVER,PR-449 TO THE END, ,SAN SEBASTIAN,SAN SEBASTIAN, ,PR,PUERTO RICO,US,00685, , , , ,0,0.000000000000000,0,2,STATIONARY, ,26-OCT-2012 17:53:57,28-JUN-2016 17:30:00, ,SFDW,WATER TREATMENT PLANT,0, , , ,0.000000000000000,0.000000000000000, , ,0, ,NAD83, ,1.000000000000000,1.000000000000000,0.000000000000000,0.000000000000000
109,http://ofmpub.epa.gov/enviro/fii_query_detail.disp_program_facility?p_registry_id=110048465898,110048465898.000000000000000,SANTA ISABEL URBANO - ESMERALDA 2,PR-153 KM 13.65, ,SANTA ISABEL,SANTA ISABEL,72133,PR,PUERTO RICO,UNITED STATES,00757, , , , ,0,0.000000000000000,0,2,STATIONARY, ,26-OCT-2012 13:48:36,28-JUN-2016 11:34:14, ,SFDW,WATER TREATMENT PLANT,0, , , ,0.000000000000000,0.000000000000000, , ,0, ,NAD83, ,1.000000000000000,1.000000000000000,0.000000000000000,0.000000000000000
110,http://ofmpub.epa.gov/enviro/fii_query_detail.disp_program_facility?p_registry_id=110048467011,110048467011.000000000000000,SANTA ISABEL URBANO - PASO SECO 1,PR-153 KM 13.65, ,SANTA ISABEL,SANTA ISABEL,72133,PR,PUERTO RICO,UNITED STATES,00757, , , , ,0,0.000000000000000,0,2,STATIONARY, ,26-OCT-2012 13:48:41,28-JUN-2016 15:00:37, ,SFDW,WATER TREATMENT PLANT,0, , , ,0.000000000000000,0.000000000000000, , ,0, ,NAD83, ,1.000000000000000,1.000000000000000,0.000000000000000,0.000000000000000
111,http://ofmpub.epa.gov/enviro/fii_query_detail.disp_program_facility?p_registry_id=110048467280,110048467280.000000000000000,SANTA ISABEL URBANO - PASO SECO 2,PR-153 KM 13.65, ,SANTA ISABEL,SANTA ISABEL,72133,PR,PUERTO RICO,UNITED STATES,00757, , , , ,0,0.000000000000000,0,2,STATIONARY, ,26-OCT-2012 13:48:42,28-JUN-2016 17:12:07, ,SFDW,WATER TREATMENT PLANT,0, , , ,0.000000000000000,0.000000000000000, , ,0, ,NAD83, ,1.000000000000000,1.000000000000000,0.000000000000000,0.000000000000000
112,http://ofmpub.epa.gov/enviro/fii_query_detail.disp_program_facility?p_registry_id=110048466049,110048466049.000000000000000,SANTA ISABEL URBANO - PASO SECO 3,PR-153 KM 13.65, ,SANTA ISABEL,SANTA ISABEL,72133,PR,PUERTO RICO,UNITED STATES,00757, , , , ,0,0.000000000000000,0,2,STATIONARY, ,26-OCT-2012 13:48:37,28-JUN-2016 17:29:01, ,SFDW,WATER TREATMENT PLANT,0, , , ,0.000000000000000,0.000000000000000, , ,0, ,NAD83, ,1.000000000000000,1.000000000000000,0.000000000000000,0.000000000000000
113,http://ofmpub.epa.gov/enviro/fii_query_detail.disp_program_facility?p_registry_id=110048562211,110048562211.000000000000000,SANTA ISABEL URBANO - PASO SECO 4,PR-153 KM 13.65, ,SANTA ISABEL,SANTA ISABEL,72133,PR,PUERTO RICO,UNITED STATES,00757, , , , ,0,0.000000000000000,0,2,STATIONARY, ,26-OCT-2012 13:59:12,28-JUN-2016 14:04:44, ,SFDW,WATER TREATMENT PLANT,0, , , ,0.000000000000000,0.000000000000000, , ,0, ,NAD83, ,1.000000000000000,1.000000000000000,0.000000000000000,0.000000000000000
114,http://ofmpub.epa.gov/enviro/fii_query_detail.disp_program_facility?p_registry_id=110048466334,110048466334.000000000000000,SANTA ISABEL URBANO - PASO SECO 5,PR-153 KM 13.65, ,SANTA ISABEL,SANTA ISABEL,72133,PR,PUERTO RICO,UNITED STATES,00757, , , , ,0,0.000000000000000,0,2,STATIONARY, ,26-OCT-2012 13:48:38,28-JUN-2016 14:46:26, ,SFDW,WATER TREATMENT PLANT,0, , , ,0.000000000000000,0.000000000000000, , ,0, ,NAD83, ,1.000000000000000,1.000000000000000,0.000000000000000,0.000000000000000
115,http://ofmpub.epa.gov/enviro/fii_query_detail.disp_program_facility?p_registry_id=110048465736,110048465736.000000000000000,SANTA ISABEL URBANO - PASO SECO 6,PR-153 KM 13.65, ,SANTA ISABEL,SANTA ISABEL,72133,PR,PUERTO RICO,UNITED STATES,00757, , , , ,0,0.000000000000000,0,2,STATIONARY, ,26-OCT-2012 13:48:35,28-JUN-2016 12:53:54, ,SFDW,WATER TREATMENT PLANT,0, , , ,0.000000000000000,0.000000000000000, , ,0, ,NAD83, ,1.000000000000000,1.000000000000000,0.000000000000000,0.000000000000000
116,http://ofmpub.epa.gov/enviro/fii_query_detail.disp_program_facility?p_registry_id=110049494356,110049494356.000000000000000,SANTA ISABEL URBANO - SANTIAGO APOSTOL,PR-153 KM 13.65, ,SANTA ISABEL,SANTA ISABEL,72133,PR,PUERTO RICO,UNITED STATES,00757, , , , ,0,0.000000000000000,0,2,STATIONARY, ,26-OCT-2012 15:47:48,28-JUN-2016 14:58:40, ,SFDW,WATER TREATMENT PLANT,0, , , ,0.000000000000000,0.000000000000000, , ,0, ,NAD83, ,1.000000000000000,1.000000000000000,0.000000000000000,0.000000000000000
117,http://ofmpub.epa.gov/enviro/fii_query_detail.disp_program_facility?p_registry_id=110048466655,110048466655.000000000000000,SANTA ISABEL URBANO - VALLE COSTERO,PR-153 KM 13.65, ,SANTA ISABEL,SANTA ISABEL,72133,PR,PUERTO RICO,UNITED STATES,00757, , , , ,0,0.000000000000000,0,2,STATIONARY, ,26-OCT-2012 13:48:40,28-JUN-2016 17:29:01, ,SFDW,WATER TREATMENT PLANT,0, , , ,0.000000000000000,0.000000000000000, , ,0, ,NAD83, ,1.000000000000000,1.000000000000000,0.000000000000000,0.000000000000000
118,http://ofmpub.epa.gov/enviro/fii_query_detail.disp_program_facility?p_registry_id=110052120619,110052120619.000000000000000,LA VIRGENCITA WATER SYSTEM,RAMAL 165 HM 6, ,TOA ALTA,TOA ALTA, ,PR,PUERTO RICO,UNITED STATES,00949, , , , ,0,0.000000000000000,0,2,STATIONARY, ,27-OCT-2012 10:11:28,28-JUN-2016 14:46:59, ,SFDW,WATER TREATMENT PLANT,0, , , ,0.000000000000000,0.000000000000000, , ,0, ,NAD83, ,1.000000000000000,1.000000000000000,0.000000000000000,0.000000000000000
119,http://ofmpub.epa.gov/enviro/fii_query_detail.disp_program_facility?p_registry_id=110048635018,110048635018.000000000000000,MAMEYES ABAJO - LIMON RIVER,PR-140 KM 19.2 INT, ,UTUADO,UTUADO,72141,PR,PUERTO RICO,UNITED STATES,00641, , , , ,0,0.000000000000000,0,2,STATIONARY, ,26-OCT-2012 14:07:05,28-JUN-2016 14:59:41, ,SFDW,WATER TREATMENT PLANT,0, , , ,0.000000000000000,0.000000000000000, , ,0, ,NAD83, ,1.000000000000000,1.000000000000000,0.000000000000000,0.000000000000000
120,http://ofmpub.epa.gov/enviro/fii_query_detail.disp_program_facility?p_registry_id=110048921066,110048921066.000000000000000,ALMIRANTE NORTE WTP,PR-160 KM 4.0, ,VEGA BAJA,VEGA BAJA,72145,PR,PUERTO RICO,UNITED STATES,00693, , , , ,0,0.000000000000000,0,2,STATIONARY, ,26-OCT-2012 14:29:59,28-JUN-2016 17:30:02, ,SFDW,WATER TREATMENT PLANT,0, , , ,0.000000000000000,0.000000000000000, , ,0, ,NAD83, ,1.000000000000000,1.000000000000000,0.000000000000000,0.000000000000000
121,http://ofmpub.epa.gov/enviro/fii_query_detail.disp_program_facility?p_registry_id=110048537197,110048537197.000000000000000,PUGNADO - WATER SYSTEM,PR-155 KM 64.4 INT, ,VEGA BAJA,VEGA BAJA,72145,PR,PUERTO RICO,UNITED STATES,00693, , , , ,0,0.000000000000000,0,2,STATIONARY, ,26-OCT-2012 13:56:16,28-JUN-2016 12:49:07, ,SFDW,WATER TREATMENT PLANT,0, , , ,0.000000000000000,0.000000000000000, , ,0, ,NAD83, ,1.000000000000000,1.000000000000000,0.000000000000000,0.000000000000000
122,http://ofmpub.epa.gov/enviro/fii_query_detail.disp_program_facility?p_registry_id=110048153715,110048153715.000000000000000,CESPEDES - CESPEDES,PR-151 KM 2, ,VILLALBA,VILLALBA,72149,PR,PUERTO RICO,UNITED STATES,00766, , , , ,0,0.000000000000000,0,2,STATIONARY, ,26-OCT-2012 13:18:21,28-JUN-2016 12:52:48, ,SFDW,WATER TREATMENT PLANT,0, , , ,0.000000000000000,0.000000000000000, , ,0, ,NAD83, ,1.000000000000000,1.000000000000000,0.000000000000000,0.000000000000000
123,http://ofmpub.epa.gov/enviro/fii_query_detail.disp_program_facility?p_registry_id=110049495630,110049495630.000000000000000,VILLALBA URBANO - RIO JACAGUAS,PR-149 R513  HM 9, ,VILLALBA,VILLALBA,72149,PR,PUERTO RICO,UNITED STATES,00766, , , , ,0,0.000000000000000,0,2,STATIONARY, ,26-OCT-2012 15:48:04,28-JUN-2016 15:21:22, ,SFDW,WATER TREATMENT PLANT,0, , , ,0.000000000000000,0.000000000000000, , ,0, ,NAD83, ,1.000000000000000,1.000000000000000,0.000000000000000,0.000000000000000
124,http://ofmpub.epa.gov/enviro/fii_query_detail.disp_program_facility?p_registry_id=110050133271,110050133271.000000000000000,RANCHERA - RANCHERAS,PR-128 R 371 KM.10.6, ,YAUCO,YAUCO,72153,PR,PUERTO RICO,UNITED STATES,00698, , , , ,0,0.000000000000000,0,2,STATIONARY, ,26-OCT-2012 18:24:30,28-JUN-2016 15:03:33, ,SFDW,WATER TREATMENT PLANT,0, , , ,0.000000000000000,0.000000000000000, , ,0, ,NAD83, ,1.000000000000000,1.000000000000000,0.000000000000000,0.000000000000000
125,http://ofmpub.epa.gov/enviro/fii_query_detail.disp_program_facility?p_registry_id=110050132637,110050132637.000000000000000,YAUCO - BARINAS,PR-128 KM 2.6, ,YAUCO,YAUCO,72153,PR,PUERTO RICO,UNITED STATES,00698, , , , ,0,0.000000000000000,0,2,STATIONARY, ,26-OCT-2012 18:24:23,28-JUN-2016 14:52:01, ,SFDW,WATER TREATMENT PLANT,0, , , ,0.000000000000000,0.000000000000000, , ,0, ,NAD83, ,1.000000000000000,1.000000000000000,0.000000000000000,0.000000000000000
126,http://ofmpub.epa.gov/enviro/fii_query_detail.disp_program_facility?p_registry_id=110050132735,110050132735.000000000000000,YAUCO - ESTANCIAS YAUCO,PR-128 KM 2.6, ,YAUCO,YAUCO,72153,PR,PUERTO RICO,UNITED STATES,00698, , , , ,0,0.000000000000000,0,2,STATIONARY, ,26-OCT-2012 18:24:24,28-JUN-2016 15:03:33, ,SFDW,WATER TREATMENT PLANT,0, , , ,0.000000000000000,0.000000000000000, , ,0, ,NAD83, ,1.000000000000000,1.000000000000000,0.000000000000000,0.000000000000000